{"type":"FeatureCollection","metadata":{"generated":1784915487000,"url":"https://earthquake.usgs.gov/fdsnws/event/1/query?format=geojson&starttime=1964-03-27&endtime=1964-03-29&minmagnitude=8","title":"USGS Earthquakes","status":200,"api":"2.7.0","count":1},"features":[{"type":"Feature","properties":{"mag":9.2,"place":"The 1964 Prince William Sound, Alaska Earthquake","time":-181859024000,"updated":1784106964142,"tz":null,"url":"https://earthquake.usgs.gov/earthquakes/eventpage/official19640328033616_30","detail":"https://earthquake.usgs.gov/fdsnws/event/1/query?eventid=official19640328033616_30&format=geojson","felt":459,"cdi":9.1,"mmi":8.392,"alert":null,"status":"automatic","tsunami":0,"sig":1720,"net":"official","code":"19640328033616_30","ids":",akgoodfrid,official19640328033616_30,ushis2642,iscgem869809,atlas19640328033612,","sources":",ak,official,ushis,iscgem,atlas,","types":",dyfi,earthquake-name,general-header,general-link,ground-failure,impact-text,origin,shakemap,trump-origin,trump-shakemap,","nst":null,"dmin":null,"rms":null,"gap":null,"magType":"mw","type":"earthquake","title":"M 9.2 - The 1964 Prince William Sound, Alaska Earthquake"},"geometry":{"type":"Point","coordinates":[-147.339,60.908,25]},"id":"official19640328033616_30"}]}